[{"OBJECT_NAME":"ONEWEB-0058","OBJECT_ID":"2020-008AG","EPOCH":"2025-11-13T06:30:53.064000","MEAN_MOTION":13.1055842,"ECCENTRICITY":0.0001429,"INCLINATION":87.8793,"RA_OF_ASC_NODE":79.326,"ARG_OF_PERICENTER":274.3179,"MEAN_ANOMALY":85.7785,"EPHEMERIS_TYPE":0,"CLASSIFICATION_TYPE":"U","NORAD_CAT_ID":45161,"ELEMENT_SET_NO":999,"REV_AT_EPOCH":28014,"BSTAR":0.069304,"MEAN_MOTION_DOT":0.00024334,"MEAN_MOTION_DDOT":0},{"OBJECT_NAME":"ONEWEB-0059","OBJECT_ID":"2020-008AH","EPOCH":"2025-11-16T18:44:10.555872","MEAN_MOTION":13.10374929,"ECCENTRICITY":0.0001678,"INCLINATION":87.8799,"RA_OF_ASC_NODE":78.6267,"ARG_OF_PERICENTER":102.2141,"MEAN_ANOMALY":257.9174,"EPHEMERIS_TYPE":0,"CLASSIFICATION_TYPE":"U","NORAD_CAT_ID":45162,"ELEMENT_SET_NO":999,"REV_AT_EPOCH":28050,"BSTAR":0.0017217,"MEAN_MOTION_DOT":6.14e-6,"MEAN_MOTION_DDOT":0},{"OBJECT_NAME":"ONEWEB-0062","OBJECT_ID":"2020-008AJ","EPOCH":"2025-11-16T13:51:19.630656","MEAN_MOTION":13.1037038,"ECCENTRICITY":0.00019341,"INCLINATION":87.8795,"RA_OF_ASC_NODE":78.6438,"ARG_OF_PERICENTER":94.6949,"MEAN_ANOMALY":265.44,"EPHEMERIS_TYPE":0,"CLASSIFICATION_TYPE":"U","NORAD_CAT_ID":45163,"ELEMENT_SET_NO":999,"REV_AT_EPOCH":28034,"BSTAR":-0.00073420053,"MEAN_MOTION_DOT":-2.44e-6,"MEAN_MOTION_DDOT":0},{"OBJECT_NAME":"ONEWEB-0065","OBJECT_ID":"2020-008AK","EPOCH":"2025-11-16T18:43:00.310080","MEAN_MOTION":13.11938863,"ECCENTRICITY":0.0001281,"INCLINATION":87.8798,"RA_OF_ASC_NODE":78.6273,"ARG_OF_PERICENTER":103.8836,"MEAN_ANOMALY":256.2434,"EPHEMERIS_TYPE":0,"CLASSIFICATION_TYPE":"U","NORAD_CAT_ID":45164,"ELEMENT_SET_NO":999,"REV_AT_EPOCH":28006,"BSTAR":0.0012916,"MEAN_MOTION_DOT":4.74e-6,"MEAN_MOTION_DDOT":0},{"OBJECT_NAME":"ONEWEB-0066","OBJECT_ID":"2020-020A","EPOCH":"2025-11-16T14:00:48.750048","MEAN_MOTION":13.1141656,"ECCENTRICITY":0.00017427,"INCLINATION":87.8873,"RA_OF_ASC_NODE":63.3987,"ARG_OF_PERICENTER":111.7928,"MEAN_ANOMALY":248.3385,"EPHEMERIS_TYPE":0,"CLASSIFICATION_TYPE":"U","NORAD_CAT_ID":45424,"ELEMENT_SET_NO":999,"REV_AT_EPOCH":27481,"BSTAR":0.0015020353,"MEAN_MOTION_DOT":5.45e-6,"MEAN_MOTION_DDOT":0},{"OBJECT_NAME":"ONEWEB-0067","OBJECT_ID":"2020-020B","EPOCH":"2025-11-16T07:35:13.975008","MEAN_MOTION":13.11415858,"ECCENTRICITY":0.0001585,"INCLINATION":87.8866,"RA_OF_ASC_NODE":63.3541,"ARG_OF_PERICENTER":108.2019,"MEAN_ANOMALY":251.9282,"EPHEMERIS_TYPE":0,"CLASSIFICATION_TYPE":"U","NORAD_CAT_ID":45425,"ELEMENT_SET_NO":999,"REV_AT_EPOCH":27483,"BSTAR":-0.0014400847,"MEAN_MOTION_DOT":-4.98e-6,"MEAN_MOTION_DDOT":0},{"OBJECT_NAME":"ONEWEB-0080","OBJECT_ID":"2020-020C","EPOCH":"2025-11-16T16:57:46.668096","MEAN_MOTION":13.11415426,"ECCENTRICITY":0.000197,"INCLINATION":87.8873,"RA_OF_ASC_NODE":63.3758,"ARG_OF_PERICENTER":103.0685,"MEAN_ANOMALY":257.0663,"EPHEMERIS_TYPE":0,"CLASSIFICATION_TYPE":"U","NORAD_CAT_ID":45426,"ELEMENT_SET_NO":999,"REV_AT_EPOCH":27485,"BSTAR":-0.0016247,"MEAN_MOTION_DOT":-5.63e-6,"MEAN_MOTION_DDOT":0},{"OBJECT_NAME":"ONEWEB-0090","OBJECT_ID":"2020-020D","EPOCH":"2025-11-16T08:16:33.440736","MEAN_MOTION":13.11417552,"ECCENTRICITY":0.00017024,"INCLINATION":87.8874,"RA_OF_ASC_NODE":63.4485,"ARG_OF_PERICENTER":101.3597,"MEAN_ANOMALY":258.7723,"EPHEMERIS_TYPE":0,"CLASSIFICATION_TYPE":"U","NORAD_CAT_ID":45427,"ELEMENT_SET_NO":999,"REV_AT_EPOCH":27477,"BSTAR":0.00074251048,"MEAN_MOTION_DOT":2.76e-6,"MEAN_MOTION_DDOT":0},{"OBJECT_NAME":"ONEWEB-0061","OBJECT_ID":"2020-020E","EPOCH":"2025-11-16T16:22:12.811008","MEAN_MOTION":13.11413826,"ECCENTRICITY":0.0001662,"INCLINATION":87.8878,"RA_OF_ASC_NODE":63.3627,"ARG_OF_PERICENTER":105.741,"MEAN_ANOMALY":254.3901,"EPHEMERIS_TYPE":0,"CLASSIFICATION_TYPE":"U","NORAD_CAT_ID":45428,"ELEMENT_SET_NO":999,"REV_AT_EPOCH":27477,"BSTAR":-3.116e-5,"MEAN_MOTION_DOT":2.0e-8,"MEAN_MOTION_DDOT":0},{"OBJECT_NAME":"ONEWEB-0081","OBJECT_ID":"2020-020F","EPOCH":"2025-11-16T17:45:25.901568","MEAN_MOTION":13.11415805,"ECCENTRICITY":0.0001715,"INCLINATION":87.8869,"RA_OF_ASC_NODE":63.3673,"ARG_OF_PERICENTER":110.8004,"MEAN_ANOMALY":249.3308,"EPHEMERIS_TYPE":0,"CLASSIFICATION_TYPE":"U","NORAD_CAT_ID":45429,"ELEMENT_SET_NO":999,"REV_AT_EPOCH":27489,"BSTAR":0.0013049,"MEAN_MOTION_DOT":4.75e-6,"MEAN_MOTION_DDOT":0},{"OBJECT_NAME":"ONEWEB-0069","OBJECT_ID":"2020-020G","EPOCH":"2025-11-16T13:49:49.569888","MEAN_MOTION":13.11419145,"ECCENTRICITY":0.00016443,"INCLINATION":87.8873,"RA_OF_ASC_NODE":63.3965,"ARG_OF_PERICENTER":105.7494,"MEAN_ANOMALY":254.3815,"EPHEMERIS_TYPE":0,"CLASSIFICATION_TYPE":"U","NORAD_CAT_ID":45430,"ELEMENT_SET_NO":999,"REV_AT_EPOCH":27480,"BSTAR":0.0010874105,"MEAN_MOTION_DOT":3.98e-6,"MEAN_MOTION_DDOT":0},{"OBJECT_NAME":"ONEWEB-0031","OBJECT_ID":"2020-020H","EPOCH":"2025-11-16T16:49:14.704896","MEAN_MOTION":13.11414883,"ECCENTRICITY":0.0001778,"INCLINATION":87.8863,"RA_OF_ASC_NODE":63.3962,"ARG_OF_PERICENTER":98.1374,"MEAN_ANOMALY":261.9956,"EPHEMERIS_TYPE":0,"CLASSIFICATION_TYPE":"U","NORAD_CAT_ID":45431,"ELEMENT_SET_NO":999,"REV_AT_EPOCH":27480,"BSTAR":-0.0016588,"MEAN_MOTION_DOT":-5.75e-6,"MEAN_MOTION_DDOT":0},{"OBJECT_NAME":"ONEWEB-0027","OBJECT_ID":"2020-020J","EPOCH":"2025-11-16T07:19:04.061568","MEAN_MOTION":13.17647955,"ECCENTRICITY":0.00017768,"INCLINATION":87.9138,"RA_OF_ASC_NODE":48.1704,"ARG_OF_PERICENTER":88.8743,"MEAN_ANOMALY":271.2592,"EPHEMERIS_TYPE":0,"CLASSIFICATION_TYPE":"U","NORAD_CAT_ID":45432,"ELEMENT_SET_NO":999,"REV_AT_EPOCH":27832,"BSTAR":0.00016196539,"MEAN_MOTION_DOT":7.6e-7,"MEAN_MOTION_DDOT":0},{"OBJECT_NAME":"ONEWEB-0064","OBJECT_ID":"2020-020K","EPOCH":"2025-11-16T07:37:27.994368","MEAN_MOTION":13.1141538,"ECCENTRICITY":0.00017014,"INCLINATION":87.8862,"RA_OF_ASC_NODE":63.463,"ARG_OF_PERICENTER":97.348,"MEAN_ANOMALY":262.7842,"EPHEMERIS_TYPE":0,"CLASSIFICATION_TYPE":"U","NORAD_CAT_ID":45433,"ELEMENT_SET_NO":999,"REV_AT_EPOCH":27478,"BSTAR":-0.0015605585,"MEAN_MOTION_DOT":-5.4e-6,"MEAN_MOTION_DDOT":0},{"OBJECT_NAME":"ONEWEB-0018","OBJECT_ID":"2020-020L","EPOCH":"2025-11-16T13:53:28.811616","MEAN_MOTION":13.11417349,"ECCENTRICITY":0.00017901,"INCLINATION":87.887,"RA_OF_ASC_NODE":63.399,"ARG_OF_PERICENTER":106.5316,"MEAN_ANOMALY":253.6009,"EPHEMERIS_TYPE":0,"CLASSIFICATION_TYPE":"U","NORAD_CAT_ID":45434,"ELEMENT_SET_NO":999,"REV_AT_EPOCH":27476,"BSTAR":0.0011920847,"MEAN_MOTION_DOT":4.35e-6,"MEAN_MOTION_DDOT":0},{"OBJECT_NAME":"ONEWEB-0083","OBJECT_ID":"2020-020M","EPOCH":"2025-11-16T17:19:46.060032","MEAN_MOTION":13.1141839,"ECCENTRICITY":0.0001728,"INCLINATION":87.8872,"RA_OF_ASC_NODE":63.3598,"ARG_OF_PERICENTER":101.3383,"MEAN_ANOMALY":258.7939,"EPHEMERIS_TYPE":0,"CLASSIFICATION_TYPE":"U","NORAD_CAT_ID":45435,"ELEMENT_SET_NO":999,"REV_AT_EPOCH":27482,"BSTAR":-0.0010201,"MEAN_MOTION_DOT":-3.49e-6,"MEAN_MOTION_DDOT":0},{"OBJECT_NAME":"ONEWEB-0095","OBJECT_ID":"2020-020N","EPOCH":"2025-11-16T17:06:32.946912","MEAN_MOTION":13.11417593,"ECCENTRICITY":0.0001077,"INCLINATION":87.8862,"RA_OF_ASC_NODE":63.3747,"ARG_OF_PERICENTER":82.2581,"MEAN_ANOMALY":277.8669,"EPHEMERIS_TYPE":0,"CLASSIFICATION_TYPE":"U","NORAD_CAT_ID":45436,"ELEMENT_SET_NO":999,"REV_AT_EPOCH":27482,"BSTAR":-0.00092423,"MEAN_MOTION_DOT":-3.15e-6,"MEAN_MOTION_DDOT":0}]
