ONEWEB-0058             
1 45161U 20008AG  25317.27144750  .00024334  00000+0  69304-1 0  9993
2 45161  87.8793  79.3260 0001429 274.3179  85.7785 13.10558420280141
ONEWEB-0059             
1 45162U 20008AH  25320.78067773  .00000614  00000+0  17217-2 0  9995
2 45162  87.8799  78.6267 0001678 102.2141 257.9174 13.10374929280506
ONEWEB-0062             
1 45163U 20008AJ  25320.57731054 -.00000244  00000+0 -73420-3 0  9993
2 45163  87.8795  78.6438 0001934  94.6949 265.4400 13.10370380280343
ONEWEB-0065             
1 45164U 20008AK  25320.77986470  .00000474  00000+0  12916-2 0  9995
2 45164  87.8798  78.6273 0001281 103.8836 256.2434 13.11938863280068
ONEWEB-0066             
1 45424U 20020A   25320.58389757  .00000545  00000+0  15020-2 0  9990
2 45424  87.8873  63.3987 0001742 111.7928 248.3385 13.11416560274814
ONEWEB-0067             
1 45425U 20020B   25320.31613397 -.00000498  00000+0 -14401-2 0  9993
2 45425  87.8866  63.3541 0001585 108.2019 251.9282 13.11415858274837
ONEWEB-0080             
1 45426U 20020C   25320.70679014 -.00000563  00000+0 -16247-2 0  9998
2 45426  87.8873  63.3758 0001970 103.0685 257.0663 13.11415426274859
ONEWEB-0090             
1 45427U 20020D   25320.34483149  .00000276  00000+0  74251-3 0  9990
2 45427  87.8874  63.4485 0001702 101.3597 258.7723 13.11417552274773
ONEWEB-0061             
1 45428U 20020E   25320.68209272  .00000002  00000+0 -31160-4 0  9992
2 45428  87.8878  63.3627 0001662 105.7410 254.3901 13.11413826274772
ONEWEB-0081             
1 45429U 20020F   25320.73988312  .00000475  00000+0  13049-2 0  9995
2 45429  87.8869  63.3673 0001715 110.8004 249.3308 13.11415805274896
ONEWEB-0069             
1 45430U 20020G   25320.57626817  .00000398  00000+0  10874-2 0  9995
2 45430  87.8873  63.3965 0001644 105.7494 254.3815 13.11419145274805
ONEWEB-0031             
1 45431U 20020H   25320.70086464 -.00000575  00000+0 -16588-2 0  9996
2 45431  87.8863  63.3962 0001778  98.1374 261.9956 13.11414883274806
ONEWEB-0027             
1 45432U 20020J   25320.30490812  .00000076  00000+0  16197-3 0  9990
2 45432  87.9138  48.1704 0001776  88.8743 271.2592 13.17647955278327
ONEWEB-0064             
1 45433U 20020K   25320.31768512 -.00000540  00000+0 -15606-2 0  9998
2 45433  87.8862  63.4630 0001701  97.3480 262.7842 13.11415380274788
ONEWEB-0018             
1 45434U 20020L   25320.57880569  .00000435  00000+0  11921-2 0  9991
2 45434  87.8870  63.3990 0001790 106.5316 253.6009 13.11417349274764
ONEWEB-0083             
1 45435U 20020M   25320.72206088 -.00000349  00000+0 -10201-2 0  9993
2 45435  87.8872  63.3598 0001728 101.3383 258.7939 13.11418390274821
ONEWEB-0095             
1 45436U 20020N   25320.71288133 -.00000315  00000+0 -92423-3 0  9994
2 45436  87.8862  63.3747 0001077  82.2581 277.8669 13.11417593274827
